NORAD_CAT_ID,OBJECT_NAME,OBJECT_TYPE,EPOCH,MEAN_MOTION,ECCENTRICITY,INCLINATION,RA_OF_ASC_NODE,ARG_OF_PERICENTER,MEAN_ANOMALY,BSTAR,MEAN_MOTION_DOT,MEAN_MOTION_DDOT,TLE_LINE0,TLE_LINE1,TLE_LINE2,SEMIMAJOR_AXIS,PERIOD,APOGEE,PERIGEE,DECAYED
53274.0,STARLINK-4050,PAYLOAD,2024-07-19 16:35:46,15.08837819,0.0001104,53.2183,348.6403,91.5002,268.6117,0.0013495,0.00021253,0.0,0 STARLINK-4050,1 53274U 22086AJ  24201.69150563  .00021253  00000-0  13495-2 0  9990,2 53274  53.2183 348.6403 0001104  91.5002 268.6117 15.08837819110920,6917.887,95.438,540.516,538.988,0.0
53274.0,STARLINK-4050,PAYLOAD,2024-07-20 13:15:46,15.08832382,9.99e-05,53.218,344.7741,99.5535,260.557,0.00045363,6.938e-05,0.0,0 STARLINK-4050,1 53274U 22086AJ  24202.55262696  .00006938  00000-0  45363-3 0  9990,2 53274  53.2180 344.7741 0000999  99.5535 260.5570 15.08832382110877,6917.904,95.438,540.46,539.078,0.0
53274.0,STARLINK-4050,PAYLOAD,2024-07-20 14:51:10,15.0883253,0.0001099,53.2181,344.4771,99.8172,260.2945,0.00059648,9.216e-05,0.0,0 STARLINK-4050,1 53274U 22086AJ  24202.61886828  .00009216  00000-0  59648-3 0  9999,2 53274  53.2181 344.4771 0001099  99.8172 260.2945 15.08832530111060,6917.903,95.438,540.528,539.008,0.0
53274.0,STARLINK-4050,PAYLOAD,2024-07-20 16:26:33,15.08837177,0.0001155,53.218,344.1767,81.0878,279.0245,0.0002837,4.23e-05,0.0,0 STARLINK-4050,1 53274U 22086AJ  24202.68510898  .00004230  00000-0  28370-3 0  9996,2 53274  53.2180 344.1767 0001155  81.0878 279.0245 15.08837177111074,6917.889,95.438,540.553,538.955,0.0
53274.0,STARLINK-4050,PAYLOAD,2024-07-21 13:06:34,15.08830574,0.0001194,53.2173,340.3063,69.1463,290.9657,2.7369e-07,-2.83e-06,0.0,0 STARLINK-4050,1 53274U 22086AJ  24203.54623580 -.00000283  00000-0  27369-6 0  9990,2 53274  53.2173 340.3063 0001194  69.1463 290.9657 15.08830574111021,6917.909,95.438,540.6,538.948,0.0
53274.0,STARLINK-4050,PAYLOAD,2024-07-21 14:41:58,15.08829045,0.0001151,53.2177,340.0096,75.6341,284.4779,-1.4493e-05,-5.18e-06,0.0,0 STARLINK-4050,1 53274U 22086AJ  24203.61247768 -.00000518  00000-0 -14493-4 0  9992,2 53274  53.2177 340.0096 0001151  75.6341 284.4779 15.08829045111213,6917.914,95.438,540.575,538.983,0.0
53274.0,STARLINK-4050,PAYLOAD,2024-07-21 16:17:21,15.08826873,0.0001151,53.2176,339.7124,72.9606,287.1512,-5.1395e-05,-1.105e-05,0.0,0 STARLINK-4050,1 53274U 22086AJ  24203.67871904 -.00001105  00000-0 -51395-4 0  9998,2 53274  53.2176 339.7124 0001151  72.9606 287.1512 15.08826873111225,6917.921,95.438,540.582,538.989,0.0
53274.0,STARLINK-4050,PAYLOAD,2024-07-22 09:46:35,15.08833803,9.79e-05,53.217,336.4477,72.8772,287.2328,0.00015536,2.185e-05,0.0,0 STARLINK-4050,1 53274U 22086AJ  24204.40735824  .00002185  00000-0  15536-3 0  9993,2 53274  53.2170 336.4477 0000979  72.8772 287.2328 15.08833803111333,6917.899,95.438,540.442,539.087,0.0
53274.0,STARLINK-4050,PAYLOAD,2024-07-22 17:43:30,15.08853382,0.0001699,53.2186,334.9596,104.4644,255.6536,0.00035979,5.445e-05,0.0,0 STARLINK-4050,1 53274U 22086AJ  24204.73854891  .00005445  00000-0  35979-3 0  9990,2 53274  53.2186 334.9596 0001699 104.4644 255.6536 15.08853382111205,6917.839,95.437,540.88,538.529,0.0
53274.0,STARLINK-4050,PAYLOAD,2024-07-23 08:01:59,15.08846741,0.0002267,53.2181,332.2855,105.2463,254.878,0.00041522,6.327e-05,0.0,0 STARLINK-4050,1 53274U 22086AJ  24205.33471069  .00006327  00000-0  41522-3 0  9990,2 53274  53.2181 332.2855 0002267 105.2463 254.8780 15.08846741111291,6917.86,95.437,541.293,538.157,0.0
53274.0,STARLINK-4050,PAYLOAD,2024-07-24 07:52:45,15.08854797,0.0002429,53.2176,327.8236,114.1392,245.9854,0.00017659,2.524e-05,0.0,0 STARLINK-4050,1 53274U 22086AJ  24206.32829886  .00002524  00000-0  17659-3 0  9993,2 53274  53.2176 327.8236 0002429 114.1392 245.9854 15.08854797111628,6917.835,95.437,541.381,538.02,0.0
53274.0,STARLINK-4050,PAYLOAD,2024-07-24 17:25:03,15.08865247,9.51e-05,53.2245,326.0411,287.3426,72.7462,-1.932e-05,-5.95e-06,0.0,0 STARLINK-4050,1 53274U 22086AJ  24206.72573278 -.00000595  00000-0 -19320-4 0  9994,2 53274  53.2245 326.0411 0000951 287.3426  72.7462 15.08865247111500,6917.803,95.436,540.326,539.01,0.0
53274.0,STARLINK-4050,PAYLOAD,2024-07-26 01:12:47,15.08837507,8.32e-05,53.2196,320.0915,225.4385,134.654,-4.1964e-06,-3.54e-06,0.0,0 STARLINK-4050,1 53274U 22086AJ  24208.05054619 -.00000354  00000-0 -41964-5 0  9998,2 53274  53.2196 320.0915 0000832 225.4385 134.6540 15.08837507111708,6917.888,95.438,540.329,539.177,0.0
53274.0,STARLINK-4050,PAYLOAD,2024-07-26 12:20:29,15.08833729,0.0001636,53.2189,318.0145,88.0117,272.1062,0.0001971,2.85e-05,0.0,0 STARLINK-4050,1 53274U 22086AJ  24208.51422975  .00002850  00000-0  19710-3 0  9996,2 53274  53.2189 318.0145 0001636  88.0117 272.1062 15.08833729111957,6917.9,95.438,540.896,538.633,0.0
53274.0,STARLINK-4050,PAYLOAD,2024-07-26 13:55:51,15.08842214,6.77e-05,53.2183,317.7153,103.1894,256.9173,0.00018079,2.591e-05,0.0,0 STARLINK-4050,1 53274U 22086AJ  24208.58046150  .00002591  00000-0  18079-3 0  9999,2 53274  53.2183 317.7153 0000677 103.1894 256.9173 15.08842214111784,6917.874,95.437,540.207,539.27,0.0
53274.0,STARLINK-4050,PAYLOAD,2024-07-27 10:35:53,15.08833246,0.0002023,53.2172,313.8466,120.5413,239.5779,4.2618e-05,3.9e-06,0.0,0 STARLINK-4050,1 53274U 22086AJ  24209.44159565  .00000390  00000-0  42618-4 0  9992,2 53274  53.2172 313.8466 0002023 120.5413 239.5779 15.08833246111912,6917.901,95.438,541.166,538.367,0.0
53274.0,STARLINK-4050,PAYLOAD,2024-07-27 16:57:26,15.08827023,0.0001408,53.2193,312.6601,108.6772,251.4373,8.5098e-06,-1.53e-06,0.0,0 STARLINK-4050,1 53274U 22086AJ  24209.70656249 -.00000153  00000-0  85098-5 0  9990,2 53274  53.2193 312.6601 0001408 108.6772 251.4373 15.08827023112138,6917.92,95.438,540.759,538.811,0.0
53274.0,STARLINK-4050,PAYLOAD,2024-07-28 13:37:27,15.08836214,0.0001508,53.2178,308.7955,92.7959,267.3206,6.0424e-05,6.74e-06,0.0,0 STARLINK-4050,1 53274U 22086AJ  24210.56768176  .00000674  00000-0  60424-4 0  9991,2 53274  53.2178 308.7955 0001508  92.7959 267.3206 15.08836214112087,6917.892,95.438,540.8,538.714,0.0
53274.0,STARLINK-4050,PAYLOAD,2024-07-28 15:12:50,15.08841963,0.0001485,53.2181,308.4972,103.1783,256.9375,2.8217e-05,1.61e-06,0.0,0 STARLINK-4050,1 53274U 22086AJ  24210.63391887  .00000161  00000-0  28217-4 0  9995,2 53274  53.2181 308.4972 0001485 103.1783 256.9375 15.08841963112272,6917.874,95.437,540.767,538.712,0.0
53274.0,STARLINK-4050,PAYLOAD,2024-07-29 13:28:14,15.08835231,0.0001706,53.2183,304.3362,101.1844,258.934,0.00019422,2.804e-05,0.0,0 STARLINK-4050,1 53274U 22086AJ  24211.56128095  .00002804  00000-0  19422-3 0  9990,2 53274  53.2183 304.3362 0001706 101.1844 258.9340 15.08835231112415,6917.895,95.438,540.94,538.58,0.0
53274.0,STARLINK-4050,PAYLOAD,2024-07-29 23:00:32,15.08848693,0.0001581,53.2187,302.5495,86.745,273.3723,0.00025466,3.768e-05,0.0,0 STARLINK-4050,1 53274U 22086AJ  24211.95871189  .00003768  00000-0  25466-3 0  9997,2 53274  53.2187 302.5495 0001581  86.7450 273.3723 15.08848693112296,6917.854,95.437,540.813,538.625,0.0
53274.0,STARLINK-4050,PAYLOAD,2024-07-30 10:08:15,15.08841715,0.0001939,53.2181,300.4672,84.476,275.6453,2.01e-05,3.2e-07,0.0,0 STARLINK-4050,1 53274U 22086AJ  24212.42240383  .00000032  00000-0  20100-4 0  9998,2 53274  53.2181 300.4672 0001939  84.4760 275.6453 15.08841715112361,6917.875,95.437,541.082,538.399,0.0
53274.0,STARLINK-4050,PAYLOAD,2024-07-30 14:54:25,15.08839632,0.0002166,53.2178,299.5723,78.6959,281.4277,-2.8754e-06,-3.34e-06,0.0,0 STARLINK-4050,1 53274U 22086AJ  24212.62112557 -.00000334  00000-0 -28754-5 0  9992,2 53274  53.2178 299.5723 0002166  78.6959 281.4277 15.08839632112577,6917.882,95.438,541.245,538.248,0.0
53274.0,STARLINK-4050,PAYLOAD,2024-07-30 22:51:19,15.08852579,0.0001804,53.2175,298.0896,88.5191,271.6008,7.9111e-05,9.72e-06,0.0,0 STARLINK-4050,1 53274U 22086AJ  24212.95231345  .00000972  00000-0  79111-4 0  9993,2 53274  53.2175 298.0896 0001804  88.5191 271.6008 15.08852579112449,6917.842,95.437,540.955,538.459,0.0
53274.0,STARLINK-4050,PAYLOAD,2024-07-31 13:09:49,15.08834794,0.0001608,53.2185,295.4108,84.7773,275.3402,-0.00011372,-2.097e-05,0.0,0 STARLINK-4050,1 53274U 22086AJ  24213.54849157 -.00002097  00000-0 -11372-3 0  9991,2 53274  53.2185 295.4108 0001608  84.7773 275.3402 15.08834794112531,6917.896,95.438,540.874,538.649,0.0
53274.0,STARLINK-4050,PAYLOAD,2024-07-31 14:45:12,15.08835116,0.0001613,53.2185,295.1134,84.502,275.6156,-0.00010886,-2.02e-05,0.0,0 STARLINK-4050,1 53274U 22086AJ  24213.61473147 -.00002020  00000-0 -10886-3 0  9996,2 53274  53.2185 295.1134 0001613  84.5020 275.6156 15.08835116112725,6917.895,95.438,540.876,538.644,0.0
53274.0,STARLINK-4050,PAYLOAD,2024-08-01 11:25:12,15.08856866,0.0001433,53.2172,291.2487,94.2647,265.8508,0.00030481,4.569e-05,0.0,0 STARLINK-4050,1 53274U 22086AJ  24214.47583358  .00004569  00000-0  30481-3 0  9998,2 53274  53.2172 291.2487 0001433  94.2647 265.8508 15.08856866112673,6917.829,95.436,540.685,538.703,0.0
53274.0,STARLINK-4050,PAYLOAD,2024-08-01 22:32:52,15.08885816,0.0001501,53.2167,289.1679,87.8336,272.2828,-0.00025285,-4.315e-05,0.0,0 STARLINK-4050,1 53274U 22086AJ  24214.93949236 -.00004315  00000-0 -25285-3 0  9997,2 53274  53.2167 289.1679 0001501  87.8336 272.2828 15.08885816112927,6917.74,95.435,540.644,538.567,0.0
53274.0,STARLINK-4050,PAYLOAD,2024-08-02 11:15:59,15.08832024,0.000156,53.2163,286.788,108.2256,251.8906,-0.00028586,-4.834e-05,0.0,0 STARLINK-4050,1 53274U 22086AJ  24215.46943949 -.00004834  00000-0 -28586-3 0  9994,2 53274  53.2163 286.7880 0001560 108.2256 251.8906 15.08832024112826,6917.905,95.438,540.849,538.691,0.0
53274.0,STARLINK-4050,PAYLOAD,2024-08-02 14:26:45,15.08825288,0.0001717,53.2159,286.193,114.8635,245.2536,-0.00016503,-2.913e-05,0.0,0 STARLINK-4050,1 53274U 22086AJ  24215.60192080 -.00002913  00000-0 -16503-3 0  9994,2 53274  53.2159 286.1930 0001717 114.8635 245.2536 15.08825288113022,6917.925,95.438,540.978,538.603,0.0
